NORAD_CAT_ID,OBJECT_NAME,OBJECT_TYPE,EPOCH,MEAN_MOTION,ECCENTRICITY,INCLINATION,RA_OF_ASC_NODE,ARG_OF_PERICENTER,MEAN_ANOMALY,BSTAR,MEAN_MOTION_DOT,MEAN_MOTION_DDOT,TLE_LINE0,TLE_LINE1,TLE_LINE2,SEMIMAJOR_AXIS,PERIOD,APOGEE,PERIGEE,DECAYED
52621.0,STARLINK-3984,PAYLOAD,2023-11-30 03:35:37,15.0884206,0.0001463,53.2182,37.5616,114.0473,246.0673,-5.3311e-05,-1.136e-05,0.0,0 STARLINK-3984,1 52621U 22052Z   23334.14974445 -.00001136  00000-0 -53311-4 0  9990,2 52621  53.2182  37.5616 0001463 114.0473 246.0673 15.08842060 85983,6917.874,95.437,540.751,538.727,0.0
52621.0,STARLINK-3984,PAYLOAD,2023-12-01 11:23:21,15.08845154,0.0001536,53.2172,31.6166,89.2256,270.8913,0.00025935,3.843e-05,0.0,0 STARLINK-3984,1 52621U 22052Z   23335.47454992  .00003843  00000-0  25935-3 0  9992,2 52621  53.2172  31.6166 0001536  89.2256 270.8913 15.08845154 86182,6917.865,95.437,540.792,538.667,0.0
52621.0,STARLINK-3984,PAYLOAD,2023-12-02 00:06:25,15.0886113,0.0001543,53.2167,29.2374,87.1413,272.9756,0.00052137,8.024e-05,0.0,0 STARLINK-3984,1 52621U 22052Z   23336.00446282  .00008024  00000-0  52137-3 0  9995,2 52621  53.2167  29.2374 0001543  87.1413 272.9756 15.08861130 86269,6917.816,95.436,540.748,538.613,0.0
52621.0,STARLINK-3984,PAYLOAD,2023-12-02 11:14:06,15.08905895,0.0001553,53.216,27.156,75.5253,284.5912,0.0019612,0.00031119,0.0,0 STARLINK-3984,1 52621U 22052Z   23336.46812953  .00031119  00000-0  19612-2 0  9998,2 52621  53.2160  27.1560 0001553  75.5253 284.5912 15.08905895 86338,6917.679,95.433,540.618,538.47,0.0
52621.0,STARLINK-3984,PAYLOAD,2023-12-02 12:49:29,15.08889089,0.0001615,53.2159,26.8585,76.314,283.8031,0.0010974,0.00017244,0.0,0 STARLINK-3984,1 52621U 22052Z   23336.53436949  .00017244  00000-0  10974-2 0  9998,2 52621  53.2159  26.8585 0001615  76.3140 283.8031 15.08889089 85960,6917.73,95.434,540.713,538.478,0.0
52621.0,STARLINK-3984,PAYLOAD,2023-12-03 09:29:32,15.08803425,0.0001377,53.2163,22.9964,89.1461,270.9688,-0.00054241,-8.901e-05,0.0,0 STARLINK-3984,1 52621U 22052Z   23337.39551610 -.00008901  00000-0 -54241-3 0  9994,2 52621  53.2163  22.9964 0001377  89.1461 270.9688 15.08803425 86478,6917.992,95.44,540.81,538.905,0.0
52621.0,STARLINK-3984,PAYLOAD,2023-12-03 12:40:19,15.08798652,0.000143,53.2169,22.4011,82.7536,277.3619,-0.00024322,-4.152e-05,0.0,0 STARLINK-3984,1 52621U 22052Z   23337.52800186 -.00004152  00000-0 -24322-3 0  9995,2 52621  53.2169  22.4011 0001430  82.7536 277.3619 15.08798652 86115,6918.007,95.44,540.861,538.883,0.0
52621.0,STARLINK-3984,PAYLOAD,2023-12-04 02:58:48,15.08800967,0.000171,53.2156,19.7181,109.5191,250.5986,0.0018157,0.00028696,0.0,0 STARLINK-3984,1 52621U 22052Z   23338.12417307  .00028696  00000-0  18157-2 0  9996,2 52621  53.2156  19.7181 0001710 109.5191 250.5986 15.08800967 86588,6918.0,95.44,541.048,538.682,0.0
52621.0,STARLINK-3984,PAYLOAD,2023-12-04 09:20:21,15.08835272,0.0001844,53.2169,18.5321,111.9726,248.1462,0.0013063,0.0002056,0.0,0 STARLINK-3984,1 52621U 22052Z   23338.38913617  .00020560  00000-0  13063-2 0  9992,2 52621  53.2169  18.5321 0001844 111.9726 248.1462 15.08835272 86246,6917.895,95.438,541.036,538.484,0.0
52621.0,STARLINK-3984,PAYLOAD,2023-12-05 07:35:44,15.08876777,0.0001815,53.2173,14.369,109.9113,250.2075,0.0015358,0.00024264,0.0,0 STARLINK-3984,1 52621U 22052Z   23339.31648591  .00024264  00000-0  15358-2 0  9996,2 52621  53.2173  14.3690 0001815 109.9113 250.2075 15.08876777 86383,6917.768,95.435,540.889,538.377,0.0
52621.0,STARLINK-3984,PAYLOAD,2023-12-06 02:40:21,15.08867042,0.0001661,53.2177,10.8012,107.8889,252.2284,0.0010863,0.00017056,0.0,0 STARLINK-3984,1 52621U 22052Z   23340.11135876  .00017056  00000-0  10863-2 0  9990,2 52621  53.2177  10.8012 0001661 107.8889 252.2284 15.08867042 86886,6917.798,95.436,540.812,538.514,0.0
52621.0,STARLINK-3984,PAYLOAD,2023-12-06 09:01:53,15.0885324,0.0001706,53.2173,9.6131,99.1765,260.942,0.00015268,2.144e-05,0.0,0 STARLINK-3984,1 52621U 22052Z   23340.37631942  .00002144  00000-0  15268-3 0  9990,2 52621  53.2173   9.6131 0001706  99.1765 260.9420 15.08853240 86924,6917.84,95.437,540.885,538.525,0.0
52621.0,STARLINK-3984,PAYLOAD,2023-12-07 00:55:45,15.08847343,0.0001932,53.2188,6.6431,104.9833,255.1373,-7.6136e-05,-1.5e-05,0.0,0 STARLINK-3984,1 52621U 22052Z   23341.03871643 -.00001500  00000-0 -76136-4 0  9997,2 52621  53.2188   6.6431 0001932 104.9833 255.1373 15.08847343 87024,6917.858,95.437,541.059,538.386,0.0
52621.0,STARLINK-3984,PAYLOAD,2023-12-07 07:17:18,15.08840839,0.0001858,53.2186,5.4492,110.0601,250.0591,-0.00010547,-1.966e-05,0.0,0 STARLINK-3984,1 52621U 22052Z   23341.30368617 -.00001966  00000-0 -10547-3 0  9998,2 52621  53.2186   5.4492 0001858 110.0601 250.0591 15.08840839 87067,6917.878,95.438,541.028,538.457,0.0
52621.0,STARLINK-3984,PAYLOAD,2023-12-08 07:08:05,15.08837813,0.0001859,53.2189,0.9871,109.7929,250.3264,1.182e-05,-1e-06,0.0,0 STARLINK-3984,1 52621U 22052Z   23342.29728352 -.00000100  00000-0  11820-4 0  9997,2 52621  53.2189   0.9871 0001859 109.7929 250.3264 15.08837813 86832,6917.887,95.438,541.038,538.466,0.0
52621.0,STARLINK-3984,PAYLOAD,2023-12-09 08:34:15,15.08844005,0.0001518,53.2178,356.2288,89.4128,270.7038,0.00013273,1.825e-05,0.0,0 STARLINK-3984,1 52621U 22052Z   23343.35711806  .00001825  00000-0  13273-3 0  9998,2 52621  53.2178 356.2288 0001518  89.4128 270.7038 15.08844005 87372,6917.868,95.437,540.783,538.683,0.0
52621.0,STARLINK-3984,PAYLOAD,2023-12-10 00:28:07,15.0883473,0.0001782,53.2186,353.258,76.7626,283.3565,9.0944e-05,1.159e-05,0.0,0 STARLINK-3984,1 52621U 22052Z   23344.01952582  .00001159  00000-0  90944-4 0  9991,2 52621  53.2186 353.2580 0001782  76.7626 283.3565 15.08834730 87478,6917.896,95.438,540.994,538.529,0.0
52621.0,STARLINK-3984,PAYLOAD,2023-12-11 06:40:26,15.08844511,0.0001632,53.2181,347.6068,84.446,275.6718,4.4109e-05,4.14e-06,0.0,0 STARLINK-3984,1 52621U 22052Z   23345.27808080  .00000414  00000-0  44109-4 0  9998,2 52621  53.2181 347.6068 0001632  84.4460 275.6718 15.08844511 87660,6917.867,95.437,540.861,538.603,0.0
52621.0,STARLINK-3984,PAYLOAD,2023-12-12 06:31:13,15.08842253,0.000163,53.2178,343.1439,110.5212,249.5955,6.4464e-05,7.38e-06,0.0,0 STARLINK-3984,1 52621U 22052Z   23346.27167889  .00000738  00000-0  64464-4 0  9999,2 52621  53.2178 343.1439 0001630 110.5212 249.5955 15.08842253 87432,6917.874,95.437,540.866,538.611,0.0
52621.0,STARLINK-3984,PAYLOAD,2023-12-13 03:11:14,15.08839551,0.0001692,53.2181,339.2794,112.3034,247.8138,5.1914e-06,-2.05e-06,0.0,0 STARLINK-3984,1 52621U 22052Z   23347.13280272 -.00000205  00000-0  51914-5 0  9994,2 52621  53.2181 339.2794 0001692 112.3034 247.8138 15.08839551 87943,6917.882,95.438,540.917,538.576,0.0
52621.0,STARLINK-3984,PAYLOAD,2023-12-13 06:22:00,15.08839329,0.0001636,53.2183,338.6841,108.6461,251.4709,-3.8146e-06,-3.49e-06,0.0,0 STARLINK-3984,1 52621U 22052Z   23347.26528279 -.00000349  00000-0 -38146-5 0  9992,2 52621  53.2183 338.6841 0001636 108.6461 251.4709 15.08839329 87589,6917.882,95.438,540.879,538.616,0.0
52621.0,STARLINK-3984,PAYLOAD,2023-12-14 04:37:24,15.08839172,0.0001656,53.2187,334.5229,110.5365,249.5805,3.7745e-05,3.13e-06,0.0,0 STARLINK-3984,1 52621U 22052Z   23348.19264203  .00000313  00000-0  37745-4 0  9991,2 52621  53.2187 334.5229 0001656 110.5365 249.5805 15.08839172 88105,6917.883,95.438,540.894,538.602,0.0
52621.0,STARLINK-3984,PAYLOAD,2023-12-14 06:12:47,15.08840775,0.0001621,53.2186,334.2246,107.9251,252.1918,5.1378e-05,5.3e-06,0.0,0 STARLINK-3984,1 52621U 22052Z   23348.25888091  .00000530  00000-0  51378-4 0  9994,2 52621  53.2186 334.2246 0001621 107.9251 252.1918 15.08840775 87730,6917.878,95.438,540.864,538.622,0.0
52621.0,STARLINK-3984,PAYLOAD,2023-12-15 04:28:11,15.08836841,0.0001559,53.2183,330.0612,104.9429,255.1736,4.4677e-05,4.23e-06,0.0,0 STARLINK-3984,1 52621U 22052Z   23349.18624515  .00000423  00000-0  44677-4 0  9991,2 52621  53.2183 330.0612 0001559 104.9429 255.1736 15.08836841 87877,6917.89,95.438,540.834,538.677,0.0
52621.0,STARLINK-3984,PAYLOAD,2023-12-16 02:43:36,15.0883281,0.0001549,53.2181,325.8977,104.4001,255.7164,-1.4539e-05,-5.19e-06,0.0,0 STARLINK-3984,1 52621U 22052Z   23350.11361334 -.00000519  00000-0 -14539-4 0  9995,2 52621  53.2181 325.8977 0001549 104.4001 255.7164 15.08832810 88392,6917.902,95.438,540.839,538.696,0.0
52621.0,STARLINK-3984,PAYLOAD,2023-12-16 05:54:22,15.08805967,0.0001564,53.2182,325.302,87.7268,272.3903,0.00041029,6.242e-05,0.0,0 STARLINK-3984,1 52621U 22052Z   23350.24609744  .00006242  00000-0  41029-3 0  9999,2 52621  53.2182 325.3020 0001564  87.7268 272.3903 15.08805967 88414,6917.984,95.44,540.931,538.767,0.0
52621.0,STARLINK-3984,PAYLOAD,2023-12-17 04:09:46,15.08837427,0.0001442,53.2176,321.1436,75.8166,284.2986,9.9657e-05,1.298e-05,0.0,0 STARLINK-3984,1 52621U 22052Z   23351.17345140  .00001298  00000-0  99657-4 0  9996,2 52621  53.2176 321.1436 0001442  75.8166 284.2986 15.08837427 88556,6917.888,95.438,540.751,538.756,0.0
52621.0,STARLINK-3984,PAYLOAD,2023-12-17 05:45:09,15.08840757,0.000149,53.2179,320.8461,75.6238,284.492,0.00012864,1.76e-05,0.0,0 STARLINK-3984,1 52621U 22052Z   23351.23968912  .00001760  00000-0  12864-3 0  9999,2 52621  53.2179 320.8461 0001490  75.6238 284.4920 15.08840757 88183,6917.878,95.438,540.774,538.712,0.0
52621.0,STARLINK-3984,PAYLOAD,2023-12-18 05:35:55,15.08850009,0.0001642,53.2196,316.3807,63.4619,296.6541,0.00023606,3.472e-05,0.0,0 STARLINK-3984,1 52621U 22052Z   23352.23328042  .00003472  00000-0  23606-3 0  9992,2 52621  53.2196 316.3807 0001642  63.4619 296.6541 15.08850009 88717,6917.85,95.437,540.851,538.579,0.0
52621.0,STARLINK-3984,PAYLOAD,2023-12-19 03:51:20,15.08837324,0.0001797,53.2179,312.2232,68.506,291.6124,-1.4097e-05,-5.12e-06,0.0,0 STARLINK-3984,1 52621U 22052Z   23353.16065826 -.00000512  00000-0 -14097-4 0  9992,2 52621  53.2179 312.2232 0001797  68.5060 291.6124 15.08837324 88854,6917.889,95.438,540.997,538.51,0.0
